ONEWEB-0195             
1 48240U 21031AG  23346.91445024 -.00000724  00000+0 -19871-2 0  9994
2 48240  87.8978 112.2758 0002052 111.8071 248.3277 13.14500508127641
ONEWEB-0201             
1 48241U 21031AH  23343.78266038 -.00000104  00000+0 -31200-3 0  9996
2 48241  87.8958 112.9284 0001676 102.5529 257.5789 13.15002901127462
ONEWEB-0207             
1 48242U 21031AJ  23346.88283020  .00000621  00000+0  16404-2 0  9991
2 48242  87.8965 112.2826 0001771  98.5426 261.5905 13.14505550127789
ONEWEB-0208             
1 48243U 21031AK  23346.86452228 -.00000918  00000+0 -25118-2 0  9991
2 48243  87.8967 112.3009 0001893 105.4705 254.6634 13.14506625127796
ONEWEB-0200             
1 48244U 21031AL  23346.90418547  .00000007  00000+0 -14325-4 0  9991
2 48244  87.8979 112.2905 0001808 109.3569 250.7757 13.14502802127731
ONEWEB-0217             
1 48245U 21031AM  23346.92002864 -.00000114  00000+0 -34215-3 0  9994
2 48245  87.8977 112.2717 0001909 115.4691 244.6636 13.14503950127684
ONEWEB-0211             
1 48767U 21045A   23346.76757244 -.00000389  00000+0 -10666-2 0  9996
2 48767  87.9004  81.8130 0001739 107.8051 252.3269 13.15547874123791
ONEWEB-0223             
1 48768U 21045B   23347.32213694  .00002878  00000+0  76063-2 0  9992
2 48768  87.9003  81.7049 0003080 134.9862 225.1518 13.15569740124995
